[
    {
        "Altitude(m)": 566587.7142560286,
        "Argument of Periapsis(deg)": 0.006622991110713501,
        "Eccentricity": 0.0,
        "Inclination(deg)": 53.0,
        "Latitude(deg)": -40.16473565169198,
        "Longitude(deg)": 44.989826392444535,
        "Mean Anomaly(deg)": -53.5447071324224,
        "RAAN(deg)": 184.990143368528,
        "Satellite Name": "Starlink Shell 1 832",
        "Satellite Number": 832,
        "Semi-Major Axis(m)": 6931778.249405717,
        "Time(s)": 190
    },
    {
        "Altitude(m)": 566426.8629000989,
        "Argument of Periapsis(deg)": 0.0069715695902247375,
        "Eccentricity": 0.0,
        "Inclination(deg)": 53.0,
        "Latitude(deg)": -39.77524652824075,
        "Longitude(deg)": 45.58629699310897,
        "Mean Anomaly(deg)": -52.91787592886564,
        "RAAN(deg)": 184.98962459845055,
        "Satellite Name": "Starlink Shell 1 832",
        "Satellite Number": 832,
        "Semi-Major Axis(m)": 6931778.249405717,
        "Time(s)": 200
    },
    {
        "Altitude(m)": 566264.6681900675,
        "Argument of Periapsis(deg)": 0.007320148069735974,
        "Eccentricity": 0.0,
        "Inclination(deg)": 53.0,
        "Latitude(deg)": -39.382256930033286,
        "Longitude(deg)": 46.17560833373713,
        "Mean Anomaly(deg)": -52.29104472530899,
        "RAAN(deg)": 184.98910582837306,
        "Satellite Name": "Starlink Shell 1 832",
        "Satellite Number": 832,
        "Semi-Major Axis(m)": 6931778.249405717,
        "Time(s)": 210
    },
    {
        "Altitude(m)": 566101.1931863102,
        "Argument of Periapsis(deg)": 0.007668726549247212,
        "Eccentricity": 0.0,
        "Inclination(deg)": 53.0,
        "Latitude(deg)": -38.98585211154113,
        "Longitude(deg)": 46.75787751607278,
        "Mean Anomaly(deg)": -51.664213521752224,
        "RAAN(deg)": 184.9885870582956,
        "Satellite Name": "Starlink Shell 1 832",
        "Satellite Number": 832,
        "Semi-Major Axis(m)": 6931778.249405717,
        "Time(s)": 220
    },
    {
        "Altitude(m)": 565936.5013744637,
        "Argument of Periapsis(deg)": 0.00801730502875845,
        "Eccentricity": 0.0,
        "Inclination(deg)": 53.0,
        "Latitude(deg)": -38.58611553997856,
        "Longitude(deg)": 47.333222408744845,
        "Mean Anomaly(deg)": -51.037382318195554,
        "RAAN(deg)": 184.9880682882181,
        "Satellite Name": "Starlink Shell 1 832",
        "Satellite Number": 832,
        "Semi-Major Axis(m)": 6931778.249405717,
        "Time(s)": 230
    },
    {
        "Altitude(m)": 565770.6566372326,
        "Argument of Periapsis(deg)": 0.008365883508269684,
        "Eccentricity": 0.0,
        "Inclination(deg)": 53.0,
        "Latitude(deg)": -38.18312891312868,
        "Longitude(deg)": 47.9017619475258,
        "Mean Anomaly(deg)": -50.41055111463881,
        "RAAN(deg)": 184.98754951814064,
        "Satellite Name": "Starlink Shell 1 832",
        "Satellite Number": 832,
        "Semi-Major Axis(m)": 6931778.249405717,
        "Time(s)": 240
    },
    {
        "Altitude(m)": 565603.7232260171,
        "Argument of Periapsis(deg)": 0.008714461987780921,
        "Eccentricity": 0.0,
        "Inclination(deg)": 53.0,
        "Latitude(deg)": -37.776972179421065,
        "Longitude(deg)": 48.463614937116034,
        "Mean Anomaly(deg)": -49.78371991108206,
        "RAAN(deg)": 184.9870307480632,
        "Satellite Name": "Starlink Shell 1 832",
        "Satellite Number": 832,
        "Semi-Major Axis(m)": 6931778.249405717,
        "Time(s)": 250
    },
    {
        "Altitude(m)": 565435.7657323669,
        "Argument of Periapsis(deg)": 0.009063040467292158,
        "Eccentricity": 0.0,
        "Inclination(deg)": 53.0,
        "Latitude(deg)": -37.367723560014376,
        "Longitude(deg)": 49.018900379610514,
        "Mean Anomaly(deg)": -49.15688870752539,
        "RAAN(deg)": 184.98651197798569,
        "Satellite Name": "Starlink Shell 1 832",
        "Satellite Number": 832,
        "Semi-Major Axis(m)": 6931778.249405717,
        "Time(s)": 260
    },
    {
        "Altitude(m)": 565266.8490592395,
        "Argument of Periapsis(deg)": 0.009411618946803396,
        "Eccentricity": 0.0,
        "Inclination(deg)": 53.0,
        "Latitude(deg)": -36.95545957266025,
        "Longitude(deg)": 49.56773781617758,
        "Mean Anomaly(deg)": -48.53005750396872,
        "RAAN(deg)": 184.98599320790825,
        "Satellite Name": "Starlink Shell 1 832",
        "Satellite Number": 832,
        "Semi-Major Axis(m)": 6931778.249405717,
        "Time(s)": 270
    },
    {
        "Altitude(m)": 565097.038392138,
        "Argument of Periapsis(deg)": 0.009760197426314633,
        "Eccentricity": 0.0,
        "Inclination(deg)": 53.0,
        "Latitude(deg)": -36.540255057139774,
        "Longitude(deg)": 50.11024616847796,
        "Mean Anomaly(deg)": -47.90322630041197,
        "RAAN(deg)": 184.9854744378308,
        "Satellite Name": "Starlink Shell 1 832",
        "Satellite Number": 832,
        "Semi-Major Axis(m)": 6931778.249405717,
        "Time(s)": 280
    },
    {
        "Altitude(m)": 564926.3991700675,
        "Argument of Periapsis(deg)": 0.01010877590582587,
        "Eccentricity": 0.0,
        "Inclination(deg)": 53.0,
        "Latitude(deg)": -36.122183202070524,
        "Longitude(deg)": 50.64654410496873,
        "Mean Anomaly(deg)": -47.2763950968552,
        "RAAN(deg)": 184.9849556677533,
        "Satellite Name": "Starlink Shell 1 832",
        "Satellite Number": 832,
        "Semi-Major Axis(m)": 6931778.249405717,
        "Time(s)": 290
    },
    {
        "Altitude(m)": 564754.9970564097,
        "Argument of Periapsis(deg)": 0.010457354385337106,
        "Eccentricity": 0.0,
        "Inclination(deg)": 53.0,
        "Latitude(deg)": -35.70131557290289,
        "Longitude(deg)": 51.17675041862785,
        "Mean Anomaly(deg)": -46.649563893298556,
        "RAAN(deg)": 184.9844368976758,
        "Satellite Name": "Starlink Shell 1 832",
        "Satellite Number": 832,
        "Semi-Major Axis(m)": 6931778.249405717,
        "Time(s)": 300
    },
    {
        "Altitude(m)": 564582.8979096265,
        "Argument of Periapsis(deg)": 0.010805932864848343,
        "Eccentricity": 0.0,
        "Inclination(deg)": 53.0,
        "Latitude(deg)": -35.27772214093668,
        "Longitude(deg)": 51.700982902641265,
        "Mean Anomaly(deg)": -46.02273268974181,
        "RAAN(deg)": 184.98391812759834,
        "Satellite Name": "Starlink Shell 1 832",
        "Satellite Number": 832,
        "Semi-Major Axis(m)": 6931778.249405717,
        "Time(s)": 310
    },
    {
        "Altitude(m)": 564410.1677539112,
        "Argument of Periapsis(deg)": 0.01115451134435958,
        "Eccentricity": 0.0,
        "Inclination(deg)": 53.0,
        "Latitude(deg)": -34.851471313197955,
        "Longitude(deg)": 52.21935874922094,
        "Mean Anomaly(deg)": -45.39590148618511,
        "RAAN(deg)": 184.98339935752085,
        "Satellite Name": "Starlink Shell 1 832",
        "Satellite Number": 832,
        "Semi-Major Axis(m)": 6931778.249405717,
        "Time(s)": 320
    },
    {
        "Altitude(m)": 564236.8727497195,
        "Argument of Periapsis(deg)": 0.011503089823870818,
        "Eccentricity": 0.0,
        "Inclination(deg)": 53.0,
        "Latitude(deg)": -34.422629963030005,
        "Longitude(deg)": 52.73199495812258,
        "Mean Anomaly(deg)": -44.76907028262836,
        "RAAN(deg)": 184.9828805874434,
        "Satellite Name": "Starlink Shell 1 832",
        "Satellite Number": 832,
        "Semi-Major Axis(m)": 6931778.249405717,
        "Time(s)": 330
    },
    {
        "Altitude(m)": 564063.0791642324,
        "Argument of Periapsis(deg)": 0.011851668303382053,
        "Eccentricity": 0.0,
        "Inclination(deg)": 53.0,
        "Latitude(deg)": -33.99126346126842,
        "Longitude(deg)": 53.23900724144213,
        "Mean Anomaly(deg)": -44.14223907907162,
        "RAAN(deg)": 184.98236181736593,
        "Satellite Name": "Starlink Shell 1 832",
        "Satellite Number": 832,
        "Semi-Major Axis(m)": 6931778.249405717,
        "Time(s)": 340
    },
    {
        "Altitude(m)": 563888.8533417606,
        "Argument of Periapsis(deg)": 0.012200246782893292,
        "Eccentricity": 0.0,
        "Inclination(deg)": 53.0,
        "Latitude(deg)": -33.55743570787139,
        "Longitude(deg)": 53.74051044990709,
        "Mean Anomaly(deg)": -43.515407875514946,
        "RAAN(deg)": 184.98184304728844,
        "Satellite Name": "Starlink Shell 1 832",
        "Satellite Number": 832,
        "Semi-Major Axis(m)": 6931778.249405717,
        "Time(s)": 350
    },
    {
        "Altitude(m)": 563714.2616740993,
        "Argument of Periapsis(deg)": 0.012548825262404526,
        "Eccentricity": 0.0,
        "Inclination(deg)": 53.0,
        "Latitude(deg)": -33.12120916389493,
        "Longitude(deg)": 54.23661900727697,
        "Mean Anomaly(deg)": -42.888576671958205,
        "RAAN(deg)": 184.98132427721097,
        "Satellite Name": "Starlink Shell 1 832",
        "Satellite Number": 832,
        "Semi-Major Axis(m)": 6931778.249405717,
        "Time(s)": 360
    },
    {
        "Altitude(m)": 563539.3705708481,
        "Argument of Periapsis(deg)": 0.012897403741915765,
        "Eccentricity": 0.0,
        "Inclination(deg)": 53.0,
        "Latitude(deg)": -32.68264488371195,
        "Longitude(deg)": 54.72744583948633,
        "Mean Anomaly(deg)": -42.26174546840153,
        "RAAN(deg)": 184.98080550713354,
        "Satellite Name": "Starlink Shell 1 832",
        "Satellite Number": 832,
        "Semi-Major Axis(m)": 6931778.249405717,
        "Time(s)": 370
    }
]